C/2021 T4 (Lemmon),e,160.7787,257.8847,329.7393,3011,0.0000060,0.99950830,0.0000,07/31.4223/2023,2000,g  7.5,4.0
# From MPEC 2024-JU4
P/2021 V2 (Fuls),e,12.6899,232.2743,259.9425,9.097025,0.0359215,0.61544348,39.1102,01/15.0/2026,2000,g 10.0,4.0
# From MPEC 2024-TD8
C/2021 X1 (Maury-Attard),h,05/27.4001/2023,140.1106,10.6361,334.6421,1.000814,3.234768,2000,7.0,4.0
# From MPEC 2024-GJ3
C/2021 Y1 (ATLAS),h,05/01.0564/2023,77.1730,244.7646,245.8551,1.001736,2.032342,2000,7.0,4.0
# From MPEC 2024-P23
C/2022 A2 (PANSTARRS),h,02/18.2235/2023,108.1924,171.6230,88.3695,1.000081,1.735108,2000,9.5,4.0
# From MPEC 2024-UQ8
C/2022 A3 (Lemmon-ATLAS),e,88.3585,325.4510,234.8878,953.5191,0.0000335,0.99611442,0.0000,09/29.0743/2023,2000,g  8.0,4.0
# From MPEC 2023-J29
P/2022 BV9 (Lemmon),e,11.9219,337.3041,16.2731,4.366818,0.1080081,0.23327937,206.5097,01/15.0/2026,2000,g  9.5,4.0
# From MPEC 2023-J29
P/2022 C1 (PANSTARRS),e,4.7634,113.0950,9.5126,7.237560,0.0506193,0.44920583,77.5016,01/15.0/2026,2000,g 12.0,4.0
# From MPEC 2023-VM5
P/2022 C2 (PANSTARRS),e,9.9831,135.2557,89.1238,6.032544,0.0665202,0.44225300,83.6696,01/15.0/2026,2000,g 12.5,4.0
# From MPEC 2023-UR6
P/2022 C3 (PANSTARRS),e,12.8250,139.0408,93.7867,9.615566,0.0330554,0.54561741,42.7978,01/15.0/2026,2000,g 11.5,4.0
# From MPEC 2022-K19
P/2022 D1 (PANSTARRS),e,44.0570,47.9352,88.6830,7.407185,0.0488905,0.54814306,78.2171,01/15.0/2026,2000,g 12.5,4.0
# From MPEC 2022-L66
P/2022 E1 (Christensen),e,19.0071,113.3402,114.8403,3.777607,0.1342391,0.22060071,176.6857,01/15.0/2026,2000,g 13.5,4.0
# From MPEC 2026-A90
C/2022 E2 (ATLAS),h,09/14.2321/2024,137.1411,125.3960,41.7690,1.000501,3.667232,2000,5.0,4.0
# From MPC186629
C/2022 E3 (ZTF),h,01/12.3832/2023,109.1801,302.4914,145.8525,1.000016,1.115754,2000,7.5,4.0
# From MPEC 2024-PC5
C/2022 F1 (ATLAS),e,57.9849,350.6365,278.4000,1448515,0.0000000,0.99999587,0.0000,08/06.3601/2022,2000,g  7.0,4.0
# From MPC185656
C/2022 H1 (PANSTARRS),e,49.8628,6.3122,246.2897,854.9270,0.0000394,0.99100672,0.0000,01/18.4995/2024,2000,g  6.0,4.0
# From MPC181181
C/2022 JK5 (PANSTARRS),e,16.8254,59.6522,247.3711,43.58909,0.0034248,0.93815025,3.3986,01/15.0/2026,2000,g 11.0,4.0
# From MPEC 2022-ST7
C/2022 K1 (Leonard),h,12/16.3707/2021,41.9776,136.3724,142.4925,1.000464,3.983163,2000,11.0,4.0
# From MPEC 2026-A24
C/2022 L2 (ATLAS),h,03/12.0370/2024,129.3091,39.2541,199.9289,1.000490,2.694081,2000,6.5,4.0
# From MPEC 2026-A90
C/2022 N2 (PANSTARRS),h,07/31.9308/2025,5.5030,319.7349,75.4240,1.003566,3.825655,2000,6.0,4.0
# From MPEC 2024-A43
C/2022 O1 (ATLAS),h,02/14.9412/2022,71.0634,49.9059,268.9344,1.000644,7.435252,2000,6.0,4.0
# From MPEC 2023-XP6
P/2022 P2 (ZTF),e,12.4415,291.1679,137.8043,4.492880,0.1034944,0.55778444,132.8907,01/15.0/2026,2000,g 12.5,4.0
# From MPEC 2026-A90
C/2022 QE78 (ATLAS),e,36.6547,119.8898,0.6527,4243,0.0000036,0.99870954,0.0000,09/12.2236/2025,2000,g  5.0,4.0
# From MPEC 2024-M41
P/2022 R1 (PANSTARRS),e,7.3860,175.6051,221.6702,7.125557,0.0518174,0.50008422,43.2624,01/15.0/2026,2000,g 11.5,4.0
# From MPC184410
C/2022 R3 (Leonard),h,03/05.9763/2023,43.0635,8.2660,72.9524,1.001507,5.133831,2000,9.0,4.0
# From MPEC 2022-WQ9
P/2022 R5 (PANSTARRS),e,15.2923,115.0397,240.4983,3.070566,0.1831793,0.19454654,243.6722,01/15.0/2026,2000,g 16.0,4.0
# From MPEC 2026-A90
C/2022 R6 (PANSTARRS),h,08/26.7487/2025,57.0252,150.7806,319.9637,1.005099,6.565730,2000,5.0,4.0
# From MPEC 2023-HD1
P/2022 S1 (PANSTARRS),e,34.5632,136.0862,262.8570,6.408445,0.0607540,0.50734634,75.6595,01/15.0/2026,2000,g 13.0,4.0
# From MPC185657
C/2022 S4 (Lemmon),e,101.2052,220.1796,268.5599,1442,0.0000180,0.99808432,0.0000,07/18.7950/2024,2000,g  8.0,4.0
# From MPEC 2024-O39
C/2022 T1 (Lemmon),h,02/17.4947/2024,22.5394,236.9077,324.2940,1.000553,3.443724,2000,9.0,4.0
# From MPEC 2025-UQ3
C/2022 U1 (Leonard),h,03/26.1876/2024,128.1440,72.5310,78.6184,1.000563,4.202083,2000,8.5,4.0
# From MPC188409
C/2022 U3 (Bok),e,33.6613,272.7869,189.1482,16060,0.0000005,0.99969941,0.0000,07/28.6807/2024,2000,g  7.5,4.0
# From MPEC 2023-W26
C/2022 U4 (Bok),e,52.0585,132.9177,88.9713,3047,0.0000059,0.99904958,0.0000,08/03.7065/2023,2000,g 10.5,4.0
# From MPEC 2024-H50
C/2022 V2 (Lemmon),e,98.9064,332.8390,168.9683,36.64827,0.0044425,0.94365032,3.5771,01/15.0/2026,2000,g 12.0,4.0
# From MPEC 2023-CD7
P/2022 W1 (Rankin),e,13.4618,38.8378,17.9580,6.976976,0.0534815,0.51625997,65.0878,01/15.0/2026,2000,g 12.5,4.0
# From MPEC 2024-EF7
C/2022 W2 (ATLAS),e,63.4939,320.4260,123.3405,341.4502,0.0001562,0.99084357,0.0000,03/08.6500/2023,2000,g 11.5,4.0
# From MPEC 2023-M14
C/2022 Y1 (Hogan),e,18.8563,285.8725,174.9263,12.62734,0.0219652,0.76539791,25.1333,01/15.0/2026,2000,g 13.0,4.0
# From MPEC 2025-YF1
C/2023 A3 (Tsuchinshan-ATLAS),h,09/27.7621/2024,139.1083,21.6105,308.5407,1.000156,0.391574,2000,6.5,3.2
# From MPEC 2024-F34
P/2023 B1 (PANSTARRS),e,14.5875,78.5628,81.8587,7.069736,0.0524323,0.13130055,51.6387,01/15.0/2026,2000,g  5.5,4.0
# From MPEC 2023-F81
P/2023 B3 (PANSTARRS),e,9.1558,153.9747,240.4017,4.551775,0.1014923,0.12201307,198.6973,01/15.0/2026,2000,g 10.5,4.0
# From MPEC 2026-A90
C/2023 C2 (ATLAS),e,48.3224,301.0059,357.4310,1887,0.0000120,0.99874491,0.0000,11/16.7245/2024,2000,g  7.0,4.0
# From MPEC 2023-N01
C/2023 F2 (SOHO),h,03/21.3911/2023,72.3726,71.4152,57.5782,1.011034,0.033377,2000,9.0,4.0
# From MPEC 2026-A90
C/2023 F3 (ATLAS),h,02/02.6428/2025,145.9631,109.4675,265.5406,1.002941,5.191049,2000,6.0,4.0
# From MPEC 2025-YF1
C/2023 H1 (PANSTARRS),e,21.7832,292.6468,333.7341,744.7379,0.0000485,0.99402866,0.0000,11/28.5305/2024,2000,g  8.5,4.0
# From MPC186630
C/2023 H3 (PANSTARRS),e,2.4883,55.0835,193.2406,13.61564,0.0196177,0.61584234,13.6723,01/15.0/2026,2000,g 10.0,4.0
# From MPEC 2023-SQ0
A/2023 H4,e,76.5760,230.8271,65.0063,139.0288,0.0006012,0.98472004,0.0000,08/08.4797/2023,2000,g 18.0,2.0
# From MPEC 2026-A24
C/2023 H5 (Lemmon),h,06/30.3770/2025,97.8545,159.4751,60.1147,1.000491,4.312723,2000,7.0,4.0
# From MPEC 2024-UA9
P/2023 JN16 (Lemmon),e,3.7013,11.8199,353.4536,2.697822,0.2224252,0.14745819,84.4054,01/15.0/2026,2000,g 14.0,4.0
# From MPEC 2024-GJ3
C/2023 K1 (ATLAS),e,137.9979,223.6943,337.4003,567.1155,0.0000730,0.99640514,0.0000,09/07.3787/2023,2000,g 13.0,4.0
# From MPEC 2023-N01
P/2023 M1 (PANSTARRS),e,12.2895,216.8603,79.6852,6.837231,0.0551295,0.58653391,42.0570,01/15.0/2026,2000,g 13.5,4.0
# From MPEC 2024-TD8
P/2023 M2 (PANSTARRS),e,19.7182,83.2567,243.6937,5.587205,0.0746298,0.36945833,67.3106,01/15.0/2026,2000,g 12.5,4.0
# From MPEC 2024-TP3
P/2023 M4 (ATLAS),e,7.5919,296.2749,320.4234,5.443654,0.0776012,0.27903769,106.5434,01/15.0/2026,2000,g  7.5,4.0
# From MPEC 2024-MB8
C/2023 P1 (Nishimura),e,132.4811,66.8028,116.2109,56.07211,0.0023474,0.99600541,0.0000,09/17.5527/2023,2000,g 10.0,4.0
# From MPC188410
C/2023 Q1 (PANSTARRS),h,12/01.1076/2024,36.6444,7.1240,84.4233,1.004811,2.576116,2000,10.0,4.0
# From MPEC 2024-N80
C/2023 Q2 (PANSTARRS),e,104.0618,92.6789,171.6666,334.0713,0.0001614,0.99039632,0.0000,06/23.8441/2024,2000,g 11.5,4.0
# From MPEC 2026-A24
C/2023 R1 (PANSTARRS),h,04/13.4064/2026,149.3159,62.5675,144.2641,1.002408,3.570047,2000,6.0,4.0
# From MPEC 2024-L77
C/2023 R2 (PANSTARRS),h,08/12.1998/2024,30.6936,188.8747,337.3316,1.000335,0.904882,2000,10.5,4.0
# From MPC188410
C/2023 RN3 (ATLAS),e,10.3513,207.0634,130.6317,10.16301,0.0304208,0.49005015,33.1802,01/15.0/2026,2000,g  7.5,4.0
# From MPEC 2026-A24
C/2023 RS61 (PANSTARRS),e,19.9463,347.0303,119.4958,11.89663,0.0240197,0.32797053,334.7116,01/15.0/2026,2000,g  6.8,4.0
# From MPC188410
P/2023 S1 (PANSTARRS),e,9.1576,317.2881,180.3383,3.844466,0.1307525,0.31850206,42.4577,01/15.0/2026,2000,g 11.5,4.0
# From MPEC 2024-BE0
P/2023 T1 (PANSTARRS),e,6.6122,249.5781,202.8966,4.226395,0.1134355,0.33314035,68.2959,01/15.0/2026,2000,g 14.0,4.0
# From MPC188410
C/2023 T3 (Fuls),e,27.2194,246.0024,302.8525,940.0545,0.0000342,0.99622539,0.0000,01/25.4060/2025,2000,g  8.5,4.0
# From MPEC 2025-UQ3
C/2023 TD22 (Lemmon),e,170.4888,5.5747,32.5380,48.36177,0.0029306,0.95128148,1.4234,01/15.0/2026,2000,g 12.5,4.0
# From MPEC 2026-A24
C/2023 U1 (Fuls),e,108.1475,305.8004,255.6617,3448,0.0000049,0.99855749,0.0000,10/13.1016/2024,2000,g  8.0,4.0
# From MPC188411
C/2023 V1 (Lemmon),h,07/13.0642/2025,102.0105,15.0500,103.3193,1.000426,5.092606,2000,8.5,4.0
# From MPC184411
P/2023 V2 (PANSTARRS),e,9.8883,95.4731,330.5152,7.216402,0.0508420,0.56978068,36.1730,01/15.0/2026,2000,g 13.5,4.0
# From MPEC 2024-A43
C/2023 V3 (PANSTARRS),e,40.6452,91.2754,291.8069,12.71540,0.0217375,0.64644964,19.5116,01/15.0/2026,2000,g 11.5,4.0
# From MPEC 2025-UQ3
C/2023 V4 (Camarasa-Duszanowicz),h,05/30.4324/2024,67.1138,66.3269,50.8795,1.001264,1.122050,2000,12.0,4.0
# From MPC181182
P/2023 V6 (PANSTARRS),e,3.9782,189.4781,191.7750,5.280496,0.0812254,0.17526365,93.2110,01/15.0/2026,2000,g 11.5,4.0
# From MPEC 2024-GJ3
C/2023 X1 (Leonard),e,110.5923,136.9717,321.4803,155.4291,0.0005086,0.99387488,0.0000,10/17.8676/2023,2000,g 13.5,3.2
# From MPEC 2026-A24
C/2023 X2 (Lemmon),h,12/28.4153/2025,76.9805,66.3010,64.7945,1.000037,5.088550,2000,8.5,3.2
# From MPEC 2024-A43
P/2023 X3 (PANSTARRS),e,4.4831,62.0166,40.9173,4.246869,0.1126162,0.28614772,71.2484,01/15.0/2026,2000,g 15.5,4.0
# From MPC184411
C/2023 X4 (Hogan),e,11.5916,28.7707,100.6228,9.929258,0.0315013,0.63146925,18.8934,01/15.0/2026,2000,g 12.0,4.0
# From MPEC 2024-DA2
C/2023 X7 (PANSTARRS),e,69.1257,119.2046,354.3959,40983,0.0000001,0.99988238,0.0000,05/15.1016/2025,2000,g  9.0,4.0
# From MPC181183
P/2023 Y2 (Gibbs),e,6.9921,79.2304,16.9367,3.748198,0.1358221,0.39218371,120.7211,01/15.0/2026,2000,g 15.5,4.0
# From MPEC 2026-A90
C/2024 A1 (ATLAS),h,06/13.0978/2025,94.5058,112.1406,353.2113,1.000530,3.874365,2000,7.0,4.0
# From MPC182881
C/2024 A2 (ATLAS),e,119.1153,78.1667,295.4928,32.15543,0.0054053,0.94154075,3.3853,01/15.0/2026,2000,g 12.5,4.0
# From MPC188411
